OBJECT_NAME,OBJECT_ID,EPOCH,MEAN_MOTION,ECCENTRICITY,INCLINATION,RA_OF_ASC_NODE,ARG_OF_PERICENTER,MEAN_ANOMALY,EPHEMERIS_TYPE,CLASSIFICATION_TYPE,NORAD_CAT_ID,ELEMENT_SET_NO,REV_AT_EPOCH,BSTAR,MEAN_MOTION_DOT,MEAN_MOTION_DDOT
CUBEBUG-2 (LO-74),2013-066AA,2026-07-15T20:45:32.622624,14.93969667,.0055631,97.8915,145.9709,293.0759,66.4601,0,U,39440,999,68127,.19551E-3,.2083E-4,0
FUNCUBE-1 (AO-73),2013-066AE,2026-07-15T21:20:20.419008,15.09822727,.003799,97.8290,168.9436,105.4335,255.1095,0,U,39444,999,68399,.22787E-3,.3677E-4,0
UWE-3,2013-066AG,2026-07-15T19:42:56.271168,14.97201399,.0047549,97.8715,153.0945,222.4036,137.3508,0,U,39446,999,68186,.17026E-3,.1951E-4,0
UNISAT-6,2014-033C,2026-07-15T08:53:25.920096,14.88366752,.00441734,97.7908,348.5932,337.1832,22.7421,0,U,40012,999,65035,.12145461E-3,.1087E-4,0
DUCHIFAT-1,2014-033M,2026-07-15T02:33:22.918464,15.70998071,.00027596,98.0418,259.3300,247.0602,113.0368,0,U,40021,999,66012,.75655471E-3,.95423E-3,0
QB50P1,2014-033R,2026-07-15T13:14:24.384768,15.18670090,.0010355,98.0962,209.6951,123.5579,236.6643,0,U,40025,999,65733,.21798E-3,.4446E-4,0
LILACSAT-2,2015-049K,2026-07-15T20:04:11.796096,15.52374891,.0008444,97.4622,234.7802,139.6571,220.5310,0,U,40908,999,60019,.20702E-3,.12542E-3,0
FOX-1A (AO-85),2015-058D,2026-07-15T09:19:38.094240,14.91088896,.01323818,64.7725,191.3328,45.7352,315.4532,0,U,40967,999,11777,.15413123E-3,.1629E-4,0
CAS-2T & KS-1Q,2016-066G,2026-07-15T18:35:13.543584,14.44771111,.0342203,98.3814,272.1835,43.0069,319.7332,0,U,41847,999,50892,.81899E-4,.524E-5,0
RADFXSAT (FOX-1B),2017-073E,2026-07-15T07:37:08.142240,15.13061529,.01482696,97.4665,62.9591,231.0626,127.7313,0,U,43017,999,46964,.1907758E-3,.4345E-4,0
DIWATA-2B,2018-084H,2026-07-15T20:16:00.212160,15.00564951,.0012801,98.1211,34.3078,82.4503,277.8174,0,U,43678,999,42051,.91544E-4,.1091E-4,0
ES'HAIL 2,2018-090A,2026-07-15T18:37:30.103104,1.00271226,.000223,0.0172,48.3163,110.7315,79.7199,0,U,43700,999,2796,0,.134E-5,0
FOX-1CLIFF (AO-95),2018-099N,2026-07-15T02:59:13.155648,15.27272459,.00072493,97.4371,256.2762,240.1261,119.9258,0,U,43770,999,41748,.24320994E-3,.6428E-4,0
ITASAT,2018-099AE,2026-07-15T03:30:16.767360,15.19381680,.00108688,97.4013,247.1033,250.6070,109.3990,0,U,43786,999,41715,.17427244E-3,.3624E-4,0
JY1SAT (JO-97),2018-099AX,2026-07-15T17:31:35.965632,15.34531069,.000691,97.4114,259.6785,156.5802,203.5757,0,U,43803,999,41800,.33119E-3,.1101E-3,0
UWE-4,2018-111E,2026-07-15T08:27:21.725856,15.47824446,.00062889,97.5850,126.0767,193.5981,166.5100,0,U,43880,999,41513,.39288701E-3,.2035E-3,0
TIANYAN 01,2019-093C,2026-07-15T20:29:53.456352,14.86559841,.0013571,97.7526,268.3858,359.4719,0.6480,0,U,44881,999,35567,-.1101E-4,-.151E-5,0
RS-44 & BREEZE-KM R/B,2019-096E,2026-07-15T18:36:55.863648,12.79748935,.0218527,82.5242,320.7086,77.6409,284.9058,0,U,44909,999,30600,-.18031E-4,.8E-7,0
SALSAT,2020-068K,2026-07-15T11:08:34.478880,15.30174422,.00092137,97.8855,201.2595,191.9024,168.1999,0,U,46495,999,31968,.14152956E-3,.4051E-4,0
XW-3 (CAS-9),2021-131B,2026-07-15T20:43:09.721344,14.41382051,.0004556,98.4993,289.0983,28.6409,331.5029,0,U,50466,999,23924,.96878E-4,.27E-5,0
GREENCUBE (IO-117),2022-080E,2026-07-15T04:46:20.871552,6.42583355,.00090693,70.1411,288.5050,283.3508,76.6141,0,U,53109,999,9386,0,-.3E-7,0
UMKA 1 (RS40S),2023-091G,2026-07-15T18:40:13.149408,15.21125695,.0012992,97.5035,255.3684,27.6908,332.5017,0,U,57172,999,16835,.1633E-3,.3571E-4,0
CUBESX-HSE 3 (RS42S),2023-091N,2026-07-15T20:32:06.984096,15.31893998,.000959,97.5078,262.8167,359.6946,0.4288,0,U,57178,999,16881,.24366E-3,.7433E-4,0
MONITOR-3 (RS58S),2023-091Q,2026-07-15T17:57:32.107392,15.28379550,.0010937,97.5069,260.4123,7.7757,352.3650,0,U,57180,999,16865,.21299E-3,.5818E-4,0
MONITOR-4 (RS57S),2023-091S,2026-07-15T20:33:37.825056,15.28467026,.00109,97.5062,260.4943,7.8165,352.3242,0,U,57182,999,16867,.21582E-3,.5912E-4,0
MONITOR-2 (RS39S),2023-091U,2026-07-15T18:28:29.024832,15.19157631,.0011348,97.5056,254.8699,22.2093,337.9631,0,U,57184,999,16829,.12902E-3,.2646E-4,0
SVYATOBOR 1 (RS60S),2023-091X,2026-07-15T19:54:46.747008,15.27069044,.000869,97.5075,260.8118,2.2489,357.8787,0,U,57187,999,16868,.17862E-3,.4672E-4,0
VIZARD-METEO (RS38S),2023-091Z,2026-07-15T19:16:25.888224,15.36885961,.0005601,97.5080,266.8775,337.1953,22.9041,0,U,57189,999,16908,.26527E-3,.9488E-4,0
POLYTECH-UNIVERSE 3 (RS46S),2023-091AB,2026-07-15T19:02:02.336640,15.19369759,.0016034,97.5033,254.3972,35.7622,324.4683,0,U,57191,999,16829,.12237E-3,.2526E-4,0
UTMN 2 (RS27S),2023-091AP,2026-07-15T19:01:11.542080,15.32710177,.0006659,97.5074,264.4212,348.0075,12.1007,0,U,57203,999,16892,.22544E-3,.7045E-4,0
